OBJECT_NAME,OBJECT_ID,EPOCH,MEAN_MOTION,ECCENTRICITY,INCLINATION,RA_OF_ASC_NODE,ARG_OF_PERICENTER,MEAN_ANOMALY,EPHEMERIS_TYPE,CLASSIFICATION_TYPE,NORAD_CAT_ID,ELEMENT_SET_NO,REV_AT_EPOCH,BSTAR,MEAN_MOTION_DOT,MEAN_MOTION_DDOT
LEMUR-2-FINNIAN,2025-276DX,2026-06-08T17:50:41.392032,15.00271962,.0008577,97.5259,231.0052,114.2544,245.9577,0,U,66782,999,1873,.57464E-3,.7148E-4,0
LEMUR-2-STARLIGHT,2025-276DY,2026-06-08T03:48:02.107872,14.98948334,.00153528,97.5274,230.1048,153.7795,206.4209,0,U,66783,999,2884,.45215688E-3,.5428E-4,0
LEMUR-2-TARTIFLETTE,2025-276DZ,2026-06-08T18:11:13.214112,14.98982216,.0013941,97.5278,230.6893,158.1116,202.0706,0,U,66784,999,2893,.62154E-3,.7489E-4,0
LEMUR-2-VUKASIN,2025-276EA,2026-06-09T00:36:43.663104,15.00276292,.0006287,97.5309,231.2249,143.5710,216.5943,0,U,66785,999,2892,.42333E-3,.5248E-4,0
LEMUR-2-HOTSPUR-TOM,2025-276EB,2026-06-09T03:36:22.038048,14.98860681,.0015359,97.5255,231.0522,152.0796,208.1254,0,U,66786,999,2892,.52223E-3,.6265E-4,0
LEMUR-2-MYRA,2025-276EC,2026-06-09T04:33:05.144832,15.00135130,.0015611,97.5219,231.3342,168.0041,192.1558,0,U,66787,999,2901,.46214E-3,.5725E-4,0
LEMUR-2 FIKRETDENGIZ,2026-004A,2026-06-08T23:58:51.484800,14.88265150,.000942,97.8015,158.6834,156.8879,203.2764,0,U,67363,999,2206,.38447E-3,.35E-4,0
TWILIGHT-1 OBJECT B,2026-004B,2026-06-08T21:15:33.367968,14.87674724,.0009411,97.8059,158.5905,148.3728,211.8056,0,U,67364,999,2205,.23015E-3,.2042E-4,0
LEMUR-2-MARIO-SOUSA,2026-004C,2026-06-08T23:36:44.178624,14.88448951,.0008964,97.7991,158.6649,157.5449,202.6161,0,U,67365,999,2207,.43981E-3,.403E-4,0
LEMUR-2-SONNENBLUME,2026-004E,2026-06-08T23:32:56.443776,14.88274696,.0008485,97.7982,158.6498,159.2931,200.8631,0,U,67367,999,2207,.27359E-3,.2475E-4,0
LEMUR-2-WOBLER,2026-004F,2026-06-08T23:25:06.358656,14.88462211,.0008928,97.8039,158.7586,148.9131,211.2616,0,U,67368,999,2207,.37833E-3,.346E-4,0
LEMUR-2-GRAM-E-SUE,2026-004H,2026-06-08T05:26:29.275872,14.88432151,.0007491,97.7973,157.9220,161.8793,198.2692,0,U,67370,999,2196,.27137E-3,.2464E-4,0
LEMUR-2-KATIE,2026-004AA,2026-06-08T18:15:22.798656,14.89997583,.0004729,97.8037,158.8796,110.2219,249.9508,0,U,67387,999,2205,.5268E-3,.5027E-4,0
LEMUR-2-HCS-BAZUS,2026-004AB,2026-06-08T18:14:05.995104,14.89994072,.0004354,97.8026,158.8607,105.5742,254.5957,0,U,67388,999,2205,.57517E-3,.5493E-4,0
